{"spkid": "54110047", "covariance": {"labels": ["e", "q", "tp", "node", "peri", "i"], "elements": [{"title": "eccentricity", "value": ".3768499008322708", "units": null, "name": "e", "sigma": 3.71774810341531e-08, "label": "e"}, {"units": "au", "title": "perihelion distance", "value": ".4872241930143231", "name": "q", "sigma": 2.91503203971582e-08, "label": "q"}, {"label": "tp", "sigma": 1.53232297112589e-05, "name": "tp", "units": "TDB", "value": "2458850.565067831990", "title": "time of perihelion passage"}, {"label": "node", "name": "om", "sigma": 3.91142950392672e-06, "units": "deg", "title": "longitude of the ascending node", "value": "143.0457869673223"}, {"label": "peri", "units": "deg", "value": "160.2426168886065", "title": "argument of perihelion", "name": "w", "sigma": 1.22975646095291e-05}, {"units": "deg", "title": "inclination", "value": "13.48386360274252", "sigma": 6.01494388091457e-06, "name": "i", "label": "i"}], "data": [["1.382165096044817E-15", "-1.083652731247833E-15", "-1.548346025766572E-13", "4.295332244316739E-15", "-7.424928588799774E-14", "-1.041769033100166E-14"], ["-1.083652731247833E-15", "8.497411792569788E-16", "1.186877156924185E-13", "-3.293784765278095E-15", "5.61228757180946E-14", "8.162582847337171E-15"], ["-1.548346025766572E-13", "1.186877156924185E-13", "2.34801368784007E-10", "-1.143105520023855E-11", "1.791280031525222E-10", "2.113139219312807E-11"], ["4.295332244316739E-15", "-3.293784765278095E-15", "-1.143105520023855E-11", "1.529928076418844E-11", "-2.234485381495351E-11", "-8.18148935017521E-12"], ["-7.424928588799774E-14", "5.61228757180946E-14", "1.791280031525222E-10", "-2.234485381495351E-11", "1.512300953255428E-10", "2.246632370592097E-11"], ["-1.041769033100166E-14", "8.162582847337171E-15", "2.113139219312807E-11", "-8.18148935017521E-12", "2.246632370592097E-11", "3.617954989055159E-11"]], "epoch": "2458804.5"}, "elements": [{"value": ".3767887358090951", "title": "eccentricity", "units": null, "name": "e", "sigma": "3.7137E-8", "label": "e"}, {"label": "a", "sigma": "7.5578E-10", "name": "a", "units": "au", "value": ".7820957934635984", "title": "semi-major axis"}, {"label": "q", "sigma": "2.9103E-8", "name": "q", "value": ".487410908162838", "title": "perihelion distance", "units": "au"}, {"name": "i", "sigma": "6.0205E-6", "units": "deg", "title": "inclination; angle with respect to x-y ecliptic plane", "value": "13.47524482928402", "label": "i"}, {"label": "node", "title": "longitude of the ascending node", "value": "142.98826158222", "units": "deg", "name": "om", "sigma": "3.8988E-6"}, {"label": "peri", "title": "argument of perihelion", "value": "160.2329359990742", "units": "deg", "sigma": "1.2318E-5", "name": "w"}, {"label": "M", "name": "ma", "sigma": "1.9473E-5", "title": "mean anomaly", "value": "109.2381278019977", "units": "deg"}, {"sigma": "1.3723E-5", "name": "tp", "value": "2461123.841538408871", "title": "time of perihelion passage", "units": "TDB", "label": "tp"}, {"name": "per", "sigma": "3.6619E-7", "value": "252.6319951475925", "title": "sidereal orbital period", "units": "d", "label": "period"}, {"label": "n", "name": "n", "sigma": "2.0656E-9", "value": "1.424997652374479", "title": "mean motion", "units": "deg/d"}, {"name": "ad", "sigma": "1.0405E-9", "title": "aphelion distance", "value": "1.076780678764359", "units": "au", "label": "Q"}], "epoch": "2461200.5"}